OBJECT_NAME,OBJECT_ID,EPOCH,MEAN_MOTION,ECCENTRICITY,INCLINATION,RA_OF_ASC_NODE,ARG_OF_PERICENTER,MEAN_ANOMALY,EPHEMERIS_TYPE,CLASSIFICATION_TYPE,NORAD_CAT_ID,ELEMENT_SET_NO,REV_AT_EPOCH,BSTAR,MEAN_MOTION_DOT,MEAN_MOTION_DDOT
SL-14 R/B,1990-018B,2026-06-07T05:20:39.031008,14.82209894,.0016841,82.5202,139.4212,152.4367,207.7744,0,U,20511,999,93584,.5366E-4,.452E-5,0
HST,1990-037B,2026-06-07T07:09:32.201568,15.30642118,.0001938,28.4712,148.1547,44.7656,315.3096,0,U,20580,999,78705,.18954E-3,.601E-4,0
SL-16 R/B,1990-046B,2026-06-07T06:19:22.874016,14.15020867,.0014112,70.9980,109.7893,176.7889,183.3327,0,U,20625,999,86106,.17296E-3,.288E-5,0
COSMOS 2084,1990-055A,2026-06-07T08:49:41.248128,15.06076558,.0005531,62.7910,29.6049,260.7113,99.3362,0,U,20663,999,94982,.17729E-3,.2402E-4,0
SL-6 R/B(2),1990-055D,2026-06-07T03:25:21.995616,15.03969781,.0039044,62.7841,309.5560,3.7613,356.3772,0,U,20666,999,95164,.1538E-3,.1961E-4,0
SL-8 R/B,1990-078B,2026-06-06T12:46:55.679232,14.91925991,.0352993,82.9017,171.2678,74.3044,289.6817,0,U,20775,999,82253,.53935E-3,.19142E-3,0
SL-8 R/B,1991-006B,2026-06-07T06:25:56.363808,13.77505196,.0023251,82.9417,103.4124,141.0617,332.4613,0,U,21088,999,77640,.41498E-4,.57E-6,0
OKEAN-3,1991-039A,2026-06-07T11:59:56.590656,15.05285143,.0014633,82.5164,249.7750,31.3204,328.8891,0,U,21397,999,87854,.1722E-3,.2495E-4,0
COSMOS 2151,1991-042A,2026-06-07T06:09:08.819712,15.00411063,.0013697,82.4962,357.2657,113.7686,246.4976,0,U,21422,999,87662,.12358E-3,.1583E-4,0
SL-14 R/B,1991-042B,2026-06-07T05:27:03.197376,14.81896277,.0015768,82.4921,136.2360,310.6410,49.3432,0,U,21423,999,86633,.54487E-4,.455E-5,0
ERS-1,1991-050A,2026-06-07T07:04:24.832704,14.39510978,.0030813,98.7800,178.7509,297.4986,62.3070,0,U,21574,999,82862,.10569E-3,.285E-5,0
ARIANE 40 R/B,1991-050F,2026-06-07T09:50:56.454432,14.42951564,.0003808,98.1879,207.2075,142.6822,217.4634,0,U,21610,999,83193,.11287E-3,.336E-5,0
INTERCOSMOS 25,1991-086A,2026-06-06T13:08:18.493728,12.12183565,.1484428,82.6057,256.2481,285.3665,58.8577,0,U,21819,999,50745,.15383E-3,.773E-5,0
SL-8 R/B,1992-008B,2026-06-07T08:55:05.681856,13.75974207,.0033348,82.9269,201.0855,242.9891,127.5869,0,U,21876,999,72175,.45726E-4,.59E-6,0
SL-8 R/B,1992-020B,2026-06-07T05:51:36.641376,13.75547953,.0030268,82.9304,87.2423,49.5104,60.6829,0,U,21938,999,71344,.57073E-4,.7E-6,0
USA 81,1992-023A,2026-06-07T08:31:33.922272,14.32395645,.000274,85.0076,79.6815,93.5330,266.6176,0,U,21949,999,10762,.68222E-4,.204E-5,0
COSMOS 2219,1992-076A,2026-06-07T08:35:37.979808,14.14095559,.0016145,71.0577,190.6201,60.2362,300.0364,0,U,22219,999,73105,-.60501E-5,-.59E-6,0
SL-16 R/B,1992-076B,2026-06-07T07:25:09.227712,14.16872334,.0014426,71.0008,359.5909,311.5990,221.2919,0,U,22220,999,73452,-.73458E-4,-.195E-5,0
COSMOS 2221,1992-080A,2026-06-07T09:02:48.490368,14.96509645,.0012651,82.5035,193.1635,248.4208,111.5667,0,U,22236,999,79420,.14018E-3,.162E-4,0
SL-16 R/B,1992-093B,2026-06-07T08:22:09.880608,14.15464968,.0004495,71.0202,176.0452,202.1321,157.9609,0,U,22285,999,72584,-.19076E-4,-.85E-6,0
COSMOS 2228,1992-094A,2026-06-07T11:11:11.948064,14.97552739,.0017864,82.5171,151.3543,5.6881,354.4541,0,U,22286,999,78949,.22795E-3,.2694E-4,0
SL-16 R/B,1993-016B,2026-06-07T07:51:57.635424,14.15308698,.0010862,71.0079,26.9164,197.8689,162.2054,0,U,22566,999,71485,.50522E-4,.51E-6,0
COSMOS 2242,1993-024A,2026-06-07T08:30:10.660320,14.96875322,.0016333,82.5181,180.9503,9.9381,350.2161,0,U,22626,999,79380,.16121E-3,.1879E-4,0
SL-16 R/B,1993-059B,2026-06-07T07:49:55.574688,14.17243986,.0014973,70.9883,182.0988,71.2369,289.0378,0,U,22803,999,69223,.9983E-4,.154E-5,0
ARIANE 40 R/B,1993-061H,2026-06-07T10:18:23.755968,14.32903954,.0011086,98.4821,225.4889,25.0511,335.1209,0,U,22830,999,70695,.10129E-3,.234E-5,0
COSMOS 2278,1994-023A,2026-06-07T06:36:00.091584,14.14392155,.0010613,71.0541,347.6650,254.4139,105.5813,0,U,23087,999,65747,.23061E-3,.394E-5,0
SL-16 R/B,1994-023B,2026-06-07T11:50:16.506240,14.15019168,.0003386,70.9996,242.2892,197.0337,163.0672,0,U,23088,999,65879,.10808E-3,.162E-5,0
SL-16 R/B,1994-074B,2026-06-07T07:57:02.406240,14.79494222,.0005206,97.6995,185.4625,295.1414,75.8545,0,U,23343,999,70050,.71071E-4,.482E-5,0
SL-16 R/B,1994-077B,2026-06-07T07:09:46.557792,14.15573834,.0002617,70.9806,163.9669,333.4307,26.6681,0,U,23405,999,62891,-.12595E-3,-.294E-5,0
ARIANE 40+ R/B,1995-021B,2026-06-07T10:54:34.001280,14.39828242,.0005846,98.4412,228.6697,225.2125,145.2561,0,U,23561,999,63216,.10961E-3,.301E-5,0
SL-16 R/B,1995-058B,2026-06-06T19:33:45.014976,14.15505363,.00133436,71.0216,353.1362,334.4552,25.5910,0,U,23705,999,58046,-.54011175E-4,-.153E-5,0
