SL-14 R/B               
1 20511U 90018B   26158.22267397  .00000452  00000+0  53660-4 0  9991
2 20511  82.5202 139.4212 0016841 152.4367 207.7744 14.82209894935847
HST                     
1 20580U 90037B   26158.29828937  .00006010  00000+0  18954-3 0  9990
2 20580  28.4712 148.1547 0001938  44.7656 315.3096 15.30642118787059
SL-16 R/B               
1 20625U 90046B   26158.26345919  .00000288  00000+0  17296-3 0  9990
2 20625  70.9980 109.7893 0014112 176.7889 183.3327 14.15020867861064
COSMOS 2084             
1 20663U 90055A   26158.36783852  .00002402  00000+0  17729-3 0  9996
2 20663  62.7910  29.6049 0005531 260.7113  99.3362 15.06076558949825
SL-6 R/B(2)             
1 20666U 90055D   26158.14261569  .00001961  00000+0  15380-3 0  9991
2 20666  62.7841 309.5560 0039044   3.7613 356.3772 15.03969781951645
SL-8 R/B                
1 20775U 90078B   26157.53258888  .00019142  00000+0  53935-3 0  9997
2 20775  82.9017 171.2678 0352993  74.3044 289.6817 14.91925991822536
SL-8 R/B                
1 21088U 91006B   26158.26801347  .00000057  00000+0  41498-4 0  9999
2 21088  82.9417 103.4124 0023251 141.0617 332.4613 13.77505196776400
OKEAN-3                 
1 21397U 91039A   26158.49996054  .00002495  00000+0  17220-3 0  9996
2 21397  82.5164 249.7750 0014633  31.3204 328.8891 15.05285143878549
COSMOS 2151             
1 21422U 91042A   26158.25635208  .00001583  00000+0  12358-3 0  9998
2 21422  82.4962 357.2657 0013697 113.7686 246.4976 15.00411063876625
SL-14 R/B               
1 21423U 91042B   26158.22712034  .00000455  00000+0  54487-4 0  9996
2 21423  82.4921 136.2360 0015768 310.6410  49.3432 14.81896277866337
ERS-1                   
1 21574U 91050A   26158.29473186  .00000285  00000+0  10569-3 0  9994
2 21574  98.7800 178.7509 0030813 297.4986  62.3070 14.39510978828621
ARIANE 40 R/B           
1 21610U 91050F   26158.41037563  .00000336  00000+0  11287-3 0  9999
2 21610  98.1879 207.2075 0003808 142.6822 217.4634 14.42951564831933
INTERCOSMOS 25          
1 21819U 91086A   26157.54743627  .00000773  00000+0  15383-3 0  9993
2 21819  82.6057 256.2481 1484428 285.3665  58.8577 12.12183565507450
SL-8 R/B                
1 21876U 92008B   26158.37159354  .00000059  00000+0  45726-4 0  9993
2 21876  82.9269 201.0855 0033348 242.9891 127.5869 13.75974207721754
SL-8 R/B                
1 21938U 92020B   26158.24417409  .00000070  00000+0  57073-4 0  9991
2 21938  82.9304  87.2423 0030268  49.5104  60.6829 13.75547953713448
USA 81                  
1 21949U 92023A   26158.35525373  .00000204  00000+0  68222-4 0  9995
2 21949  85.0076  79.6815 0002740  93.5330 266.6176 14.32395645107627
COSMOS 2219             
1 22219U 92076A   26158.35807847 -.00000059  00000+0 -60501-5 0  9996
2 22219  71.0577 190.6201 0016145  60.2362 300.0364 14.14095559731055
SL-16 R/B               
1 22220U 92076B   26158.30913458 -.00000195  00000+0 -73458-4 0  9994
2 22220  71.0008 359.5909 0014426 311.5990 221.2919 14.16872334734527
COSMOS 2221             
1 22236U 92080A   26158.37695012  .00001620  00000+0  14018-3 0  9994
2 22236  82.5035 193.1635 0012651 248.4208 111.5667 14.96509645794209
SL-16 R/B               
1 22285U 92093B   26158.34872547 -.00000085  00000+0 -19076-4 0  9995
2 22285  71.0202 176.0452 0004495 202.1321 157.9609 14.15464968725842
COSMOS 2228             
1 22286U 92094A   26158.46611051  .00002694  00000+0  22795-3 0  9998
2 22286  82.5171 151.3543 0017864   5.6881 354.4541 14.97552739789497
SL-16 R/B               
1 22566U 93016B   26158.32775041  .00000051  00000+0  50522-4 0  9994
2 22566  71.0079  26.9164 0010862 197.8689 162.2054 14.15308698714850
COSMOS 2242             
1 22626U 93024A   26158.35429005  .00001879  00000+0  16121-3 0  9994
2 22626  82.5181 180.9503 0016333   9.9381 350.2161 14.96875322793809
SL-16 R/B               
1 22803U 93059B   26158.32633767  .00000154  00000+0  99830-4 0  9992
2 22803  70.9883 182.0988 0014973  71.2369 289.0378 14.17243986692234
ARIANE 40 R/B           
1 22830U 93061H   26158.42944162  .00000234  00000+0  10129-3 0  9992
2 22830  98.4821 225.4889 0011086  25.0511 335.1209 14.32903954706957
COSMOS 2278             
1 23087U 94023A   26158.27500106  .00000394  00000+0  23061-3 0  9991
2 23087  71.0541 347.6650 0010613 254.4139 105.5813 14.14392155657477
SL-16 R/B               
1 23088U 94023B   26158.49324660  .00000162  00000+0  10808-3 0  9993
2 23088  70.9996 242.2892 0003386 197.0337 163.0672 14.15019168658798
SL-16 R/B               
1 23343U 94074B   26158.33127785  .00000482  00000+0  71071-4 0  9990
2 23343  97.6995 185.4625 0005206 295.1414  75.8545 14.79494222700502
SL-16 R/B               
1 23405U 94077B   26158.29845553 -.00000294  00000+0 -12595-3 0  9995
2 23405  70.9806 163.9669 0002617 333.4307  26.6681 14.15573834628911
ARIANE 40+ R/B          
1 23561U 95021B   26158.45456020  .00000301  00000+0  10961-3 0  9995
2 23561  98.4412 228.6697 0005846 225.2125 145.2561 14.39828242632164
SL-16 R/B               
1 23705U 95058B   26157.81510434 -.00000153  00000+0 -54011-4 0  9996
2 23705  71.0216 353.1362 0013343 334.4552  25.5910 14.15505363580467
